CCSDS_OMM_VERS = 2.0
CREATION_DATE  = 
ORIGINATOR     = 

OBJECT_NAME    = H-2A R/B
OBJECT_ID      = 2006-002B
CENTER_NAME    = EARTH
REF_FRAME      = TEME
TIME_SYSTEM    = UTC
MEAN_ELEMENT_THEORY = SGP/SGP4

EPOCH          = 2026-03-14T08:38:24.730944
MEAN_MOTION    = 15.16531479
ECCENTRICITY   = .00520342
INCLINATION    = 98.2410
RA_OF_ASC_NODE = 220.7857
ARG_OF_PERICENTER = 225.0507
MEAN_ANOMALY   = 134.6499

EPHEMERIS_TYPE = 0
CLASSIFICATION_TYPE = U
NORAD_CAT_ID   = 28932
ELEMENT_SET_NO = 999
REV_AT_EPOCH   = 9514
BSTAR          = .64834343E-3
MEAN_MOTION_DOT = .13019E-3
MEAN_MOTION_DDOT = 0

CCSDS_OMM_VERS = 2.0
CREATION_DATE  = 
ORIGINATOR     = 

OBJECT_NAME    = RESURS-DK 1
OBJECT_ID      = 2006-021A
CENTER_NAME    = EARTH
REF_FRAME      = TEME
TIME_SYSTEM    = UTC
MEAN_ELEMENT_THEORY = SGP/SGP4

EPOCH          = 2026-03-14T13:27:35.209152
MEAN_MOTION    = 15.12784346
ECCENTRICITY   = .00013607
INCLINATION    = 69.9325
RA_OF_ASC_NODE = 224.4218
ARG_OF_PERICENTER = 156.3357
MEAN_ANOMALY   = 203.7872

EPHEMERIS_TYPE = 0
CLASSIFICATION_TYPE = U
NORAD_CAT_ID   = 29228
ELEMENT_SET_NO = 999
REV_AT_EPOCH   = 8826
BSTAR          = .25097479E-3
MEAN_MOTION_DOT = .4309E-4
MEAN_MOTION_DDOT = 0

CCSDS_OMM_VERS = 2.0
CREATION_DATE  = 
ORIGINATOR     = 

OBJECT_NAME    = CZ-4B R/B
OBJECT_ID      = 2006-046C
CENTER_NAME    = EARTH
REF_FRAME      = TEME
TIME_SYSTEM    = UTC
MEAN_ELEMENT_THEORY = SGP/SGP4

EPOCH          = 2026-03-14T13:21:25.715232
MEAN_MOTION    = 15.16959769
ECCENTRICITY   = .00317699
INCLINATION    = 97.5589
RA_OF_ASC_NODE = 118.4525
ARG_OF_PERICENTER = 249.6387
MEAN_ANOMALY   = 110.1432

EPHEMERIS_TYPE = 0
CLASSIFICATION_TYPE = U
NORAD_CAT_ID   = 29507
ELEMENT_SET_NO = 999
REV_AT_EPOCH   = 6078
BSTAR          = .29980694E-3
MEAN_MOTION_DOT = .5924E-4
MEAN_MOTION_DDOT = 0

CCSDS_OMM_VERS = 2.0
CREATION_DATE  = 
ORIGINATOR     = 

OBJECT_NAME    = CZ-2C R/B
OBJECT_ID      = 2007-010B
CENTER_NAME    = EARTH
REF_FRAME      = TEME
TIME_SYSTEM    = UTC
MEAN_ELEMENT_THEORY = SGP/SGP4

EPOCH          = 2026-03-14T14:05:12.942240
MEAN_MOTION    = 14.20248334
ECCENTRICITY   = .00578506
INCLINATION    = 98.3982
RA_OF_ASC_NODE = 186.6204
ARG_OF_PERICENTER = 280.1051
MEAN_ANOMALY   = 79.3603

EPHEMERIS_TYPE = 0
CLASSIFICATION_TYPE = U
NORAD_CAT_ID   = 31114
ELEMENT_SET_NO = 999
REV_AT_EPOCH   = 98041
BSTAR          = .93551287E-4
MEAN_MOTION_DOT = .162E-5
MEAN_MOTION_DDOT = 0

CCSDS_OMM_VERS = 2.0
CREATION_DATE  = 
ORIGINATOR     = 

OBJECT_NAME    = COSMO-SKYMED 1
OBJECT_ID      = 2007-023A
CENTER_NAME    = EARTH
REF_FRAME      = TEME
TIME_SYSTEM    = UTC
MEAN_ELEMENT_THEORY = SGP/SGP4

EPOCH          = 2026-03-14T14:41:35.407968
MEAN_MOTION    = 14.96582605
ECCENTRICITY   = .00015982
INCLINATION    = 97.8882
RA_OF_ASC_NODE = 264.6838
ARG_OF_PERICENTER = 94.6063
MEAN_ANOMALY   = 265.5341

EPHEMERIS_TYPE = 0
CLASSIFICATION_TYPE = U
NORAD_CAT_ID   = 31598
ELEMENT_SET_NO = 999
REV_AT_EPOCH   = 1564
BSTAR          = .48502998E-3
MEAN_MOTION_DOT = .5464E-4
MEAN_MOTION_DDOT = 0

CCSDS_OMM_VERS = 2.0
CREATION_DATE  = 
ORIGINATOR     = 

OBJECT_NAME    = COSMOS 2428
OBJECT_ID      = 2007-029A
CENTER_NAME    = EARTH
REF_FRAME      = TEME
TIME_SYSTEM    = UTC
MEAN_ELEMENT_THEORY = SGP/SGP4

EPOCH          = 2026-03-14T15:10:01.535808
MEAN_MOTION    = 14.12947079
ECCENTRICITY   = .000932
INCLINATION    = 70.9438
RA_OF_ASC_NODE = 192.9701
ARG_OF_PERICENTER = 272.0705
MEAN_ANOMALY   = 87.9349

EPHEMERIS_TYPE = 0
CLASSIFICATION_TYPE = U
NORAD_CAT_ID   = 31792
ELEMENT_SET_NO = 999
REV_AT_EPOCH   = 96479
BSTAR          = .32118717E-4
MEAN_MOTION_DOT = .12E-6
MEAN_MOTION_DDOT = 0

CCSDS_OMM_VERS = 2.0
CREATION_DATE  = 
ORIGINATOR     = 

OBJECT_NAME    = SL-16 R/B
OBJECT_ID      = 2007-029B
CENTER_NAME    = EARTH
REF_FRAME      = TEME
TIME_SYSTEM    = UTC
MEAN_ELEMENT_THEORY = SGP/SGP4

EPOCH          = 2026-03-14T14:10:36.659712
MEAN_MOTION    = 14.14835383
ECCENTRICITY   = .00022867
INCLINATION    = 70.9758
RA_OF_ASC_NODE = 162.0835
ARG_OF_PERICENTER = 276.2806
MEAN_ANOMALY   = 181.8581

EPHEMERIS_TYPE = 0
CLASSIFICATION_TYPE = U
NORAD_CAT_ID   = 31793
ELEMENT_SET_NO = 999
REV_AT_EPOCH   = 96606
BSTAR          = .15487159E-3
MEAN_MOTION_DOT = .251E-5
MEAN_MOTION_DDOT = 0

CCSDS_OMM_VERS = 2.0
CREATION_DATE  = 
ORIGINATOR     = 

OBJECT_NAME    = KORONAS-FOTON
OBJECT_ID      = 2009-003A
CENTER_NAME    = EARTH
REF_FRAME      = TEME
TIME_SYSTEM    = UTC
MEAN_ELEMENT_THEORY = SGP/SGP4

EPOCH          = 2026-03-14T15:02:47.455296
MEAN_MOTION    = 15.43435520
ECCENTRICITY   = .00116623
INCLINATION    = 82.4272
RA_OF_ASC_NODE = 270.7436
ARG_OF_PERICENTER = 133.5624
MEAN_ANOMALY   = 226.6594

EPHEMERIS_TYPE = 0
CLASSIFICATION_TYPE = U
NORAD_CAT_ID   = 33504
ELEMENT_SET_NO = 999
REV_AT_EPOCH   = 94650
BSTAR          = .33820772E-3
MEAN_MOTION_DOT = .15202E-3
MEAN_MOTION_DDOT = 0

CCSDS_OMM_VERS = 2.0
CREATION_DATE  = 
ORIGINATOR     = 

OBJECT_NAME    = CZ-2C R/B
OBJECT_ID      = 2011-030B
CENTER_NAME    = EARTH
REF_FRAME      = TEME
TIME_SYSTEM    = UTC
MEAN_ELEMENT_THEORY = SGP/SGP4

EPOCH          = 2026-03-14T11:39:03.705120
MEAN_MOTION    = 14.81242916
ECCENTRICITY   = .00519498
INCLINATION    = 97.8546
RA_OF_ASC_NODE = 30.6523
ARG_OF_PERICENTER = 336.4178
MEAN_ANOMALY   = 136.7040

EPHEMERIS_TYPE = 0
CLASSIFICATION_TYPE = U
NORAD_CAT_ID   = 37731
ELEMENT_SET_NO = 999
REV_AT_EPOCH   = 79080
BSTAR          = .23673259E-3
MEAN_MOTION_DOT = .1832E-4
MEAN_MOTION_DDOT = 0

CCSDS_OMM_VERS = 2.0
CREATION_DATE  = 
ORIGINATOR     = 

OBJECT_NAME    = H-2A R/B
OBJECT_ID      = 2012-025E
CENTER_NAME    = EARTH
REF_FRAME      = TEME
TIME_SYSTEM    = UTC
MEAN_ELEMENT_THEORY = SGP/SGP4

EPOCH          = 2026-03-14T14:43:57.529056
MEAN_MOTION    = 14.95210925
ECCENTRICITY   = .00432381
INCLINATION    = 98.4734
RA_OF_ASC_NODE = 41.0545
ARG_OF_PERICENTER = 297.8386
MEAN_ANOMALY   = 61.8454

EPHEMERIS_TYPE = 0
CLASSIFICATION_TYPE = U
NORAD_CAT_ID   = 38341
ELEMENT_SET_NO = 999
REV_AT_EPOCH   = 74895
BSTAR          = .3483712E-3
MEAN_MOTION_DOT = .3831E-4
MEAN_MOTION_DDOT = 0

CCSDS_OMM_VERS = 2.0
CREATION_DATE  = 
ORIGINATOR     = 

OBJECT_NAME    = SHIJIAN-16 (SJ-16)
OBJECT_ID      = 2013-057A
CENTER_NAME    = EARTH
REF_FRAME      = TEME
TIME_SYSTEM    = UTC
MEAN_ELEMENT_THEORY = SGP/SGP4

EPOCH          = 2026-03-14T15:45:57.247776
MEAN_MOTION    = 14.92370901
ECCENTRICITY   = .00153544
INCLINATION    = 74.9735
RA_OF_ASC_NODE = 175.6855
ARG_OF_PERICENTER = 99.7692
MEAN_ANOMALY   = 260.5231

EPHEMERIS_TYPE = 0
CLASSIFICATION_TYPE = U
NORAD_CAT_ID   = 39358
ELEMENT_SET_NO = 999
REV_AT_EPOCH   = 67224
BSTAR          = .19849976E-3
MEAN_MOTION_DOT = .2007E-4
MEAN_MOTION_DDOT = 0

CCSDS_OMM_VERS = 2.0
CREATION_DATE  = 
ORIGINATOR     = 

OBJECT_NAME    = SL-4 R/B
OBJECT_ID      = 2014-021B
CENTER_NAME    = EARTH
REF_FRAME      = TEME
TIME_SYSTEM    = UTC
MEAN_ELEMENT_THEORY = SGP/SGP4

EPOCH          = 2026-03-14T15:04:19.846272
MEAN_MOTION    = 15.39357154
ECCENTRICITY   = .00971017
INCLINATION    = 51.6067
RA_OF_ASC_NODE = 313.1847
ARG_OF_PERICENTER = 120.9779
MEAN_ANOMALY   = 240.0789

EPHEMERIS_TYPE = 0
CLASSIFICATION_TYPE = U
NORAD_CAT_ID   = 39679
ELEMENT_SET_NO = 999
REV_AT_EPOCH   = 65703
BSTAR          = .40571863E-3
MEAN_MOTION_DOT = .18593E-3
MEAN_MOTION_DDOT = 0

